BEIJING 1               
1 28890U 05043A   16292.47178823  .00000073  00000-0  23714-4 0  9990
2 28890  97.8482  94.5096 0015228 187.9497 172.1479 14.61143121585129
HJ-1A                   
1 33320U 08041A   16292.41890861  .00000526  00000-0  82172-4 0  9998
2 33320  97.9700 354.7738 0027599  84.8924 275.5438 14.76676252437104
HJ-1B                   
1 33321U 08041B   16292.43688783  .00000606  00000-0  93065-4 0  9991
2 33321  97.9744 355.8298 0036099 100.3800 260.1482 14.76744141437098
YAOGAN 4                
1 33446U 08061A   16292.52731985  .00000267  00000-0  45086-4 0  9997
2 33446  97.5894 297.9627 0016464  16.0795 344.0935 14.76428215424362
DEIMOS-1                
1 35681U 09041A   16292.48826766  .00000308  00000-0  57383-4 0  9995
2 35681  97.9750 183.8642 0002390  48.8148 311.3257 14.71608588387593
UK-DMC 2                
1 35683U 09041C   16292.49016916  .00000140  00000-0  30515-4 0  9998
2 35683  97.8674 173.8745 0001599  93.0728 267.0651 14.70913780387472
RISAT 1                 
1 38248U 12017A   16292.53212375  .00001501  00000-0  98880-4 0  9998
2 38248  97.5630 297.3988 0005672 136.0185  21.4109 15.09008785246795
DMC3-FM1                
1 40715U 15032A   16292.52533826  .00000150  00000-0  30794-4 0  9995
2 40715  98.0615 183.7754 0015895 186.4528 173.6477 14.73695226 68605
DMC3-FM2                
1 40716U 15032B   16292.34467301  .00000150  00000-0  30777-4 0  9991
2 40716  98.0634 183.6218 0013016 194.9442 165.1374 14.73696835 68589
DMC3-FM3                
1 40717U 15032C   16292.43506193  .00000171  00000-0  33932-4 0  9994
2 40717  98.0611 184.5339 0016912 188.5172 171.5746 14.73710282 68594
